{
  "norad_id": 68082,
  "name": "STARLINK-37054",
  "history": [
    {
      "epoch": "2026-03-28T22:00:01.999584Z",
      "apogee_km": 329.06193858744246,
      "perigee_km": 327.29536091898353,
      "latitude_deg": 46.93512910540553,
      "longitude_deg": -5.174921153607054,
      "height_km": 332.4030345256428,
      "semi_major_axis_km": 6706.315649753213,
      "eccentricity": 0.00013171,
      "inclination_deg": 53.1568,
      "raan_deg": 98.3041,
      "arg_perigee_deg": 59.8541,
      "mean_anomaly_deg": 5.7475,
      "mean_motion_rev_day": 15.80799449
    },
    {
      "epoch": "2026-03-29T05:18:39.792960Z",
      "apogee_km": 329.06202650150317,
      "perigee_km": 326.3595698388408,
      "latitude_deg": 5.812536168530403e-06,
      "longitude_deg": -169.51839771972948,
      "height_km": 327.4330626366686,
      "semi_major_axis_km": 6705.847798170172,
      "eccentricity": 0.0002015,
      "inclination_deg": 53.1573,
      "raan_deg": 96.7779,
      "arg_perigee_deg": 27.7623,
      "mean_anomaly_deg": 332.3507,
      "mean_motion_rev_day": 15.80964885
    },
    {
      "epoch": "2026-03-30T02:33:09.816768Z",
      "apogee_km": 328.32420170417936,
      "perigee_km": 327.252594825537,
      "latitude_deg": 1.0533217957512953e-05,
      "longitude_deg": -133.45175740739526,
      "height_km": 328.43480589539803,
      "semi_major_axis_km": 6705.925398264858,
      "eccentricity": 7.99e-05,
      "inclination_deg": 53.1568,
      "raan_deg": 92.342,
      "arg_perigee_deg": 300.6851,
      "mean_anomaly_deg": 59.4093,
      "mean_motion_rev_day": 15.80937443
    },
    {
      "epoch": "2026-03-30T07:06:16.371648Z",
      "apogee_km": 328.38007907690553,
      "perigee_km": 326.85250847658335,
      "latitude_deg": 5.8173776974791384e-05,
      "longitude_deg": 157.13342966909073,
      "height_km": 328.8666832322591,
      "semi_major_axis_km": 6705.753293776745,
      "eccentricity": 0.0001139,
      "inclination_deg": 53.1565,
      "raan_deg": 91.3914,
      "arg_perigee_deg": 115.8204,
      "mean_anomaly_deg": 244.2937,
      "mean_motion_rev_day": 15.80998306
    }
  ]
}